ORBCOMM-X [-]           
1 21576U 91050C   23265.75014032  .00000571  00000+0  18675-3 0  9998
2 21576  98.4263 331.8769 0002632 309.8731  50.2226 14.42177359690786
ORBCOMM FM01 [-]        
1 23545U 95017A   23265.87312167  .00006305  00000+0  91377-3 0  9997
2 23545  69.9688 194.6956 0006808 223.4259 136.6353 14.76493907518647
ORBCOMM FM02 [-]        
1 23546U 95017B   23265.90370168  .00008572  00000+0  12535-2 0  9993
2 23546  69.9702 213.6172 0008104 213.0320 147.0322 14.75951873518307
ORBCOMM FM08 [-]        
1 25112U 97084A   23265.80837951  .00002336  00000+0  75984-3 0  9997
2 25112  45.0140 156.5104 0007844 298.9409  61.0654 14.41248013349863
ORBCOMM FM10 [-]        
1 25113U 97084B   23265.80411040  .00001994  00000+0  65587-3 0  9992
2 25113  45.0152 158.2374 0005076 273.6943  86.3326 14.41195329525013
ORBCOMM FM11 [+]        
1 25114U 97084C   23265.80449599  .00002015  00000+0  66380-3 0  9990
2 25114  45.0136 158.1297 0005799 272.9318  87.0868 14.41078056349985
ORBCOMM FM12 [-]        
1 25115U 97084D   23265.82987504  .00002060  00000+0  67783-3 0  9994
2 25115  45.0147 157.6477 0004893 276.2193  83.8099 14.41073015349782
ORBCOMM FM09 [-]        
1 25116U 97084E   23265.83643364  .00002001  00000+0  65992-3 0  9994
2 25116  45.0149 158.2452 0005740 257.6195 102.4012 14.41053602349998
